[{"OBJECT_NAME":"ZACUBE-1 (TSHEPISOSAT)","OBJECT_ID":"2013-066B","EPOCH":"2026-03-09T22:19:27.469056","MEAN_MOTION":15.00329659,"ECCENTRICITY":0.00425262,"INCLINATION":97.8171,"RA_OF_ASC_NODE":30.7553,"ARG_OF_PERICENTER":219.1599,"MEAN_ANOMALY":140.6545,"EPHEMERIS_TYPE":0,"CLASSIFICATION_TYPE":"U","NORAD_CAT_ID":39417,"ELEMENT_SET_NO":999,"REV_AT_EPOCH":66584,"BSTAR":0.00042975473,"MEAN_MOTION_DOT":5.431e-5,"MEAN_MOTION_DDOT":0},{"OBJECT_NAME":"STARLINK-3174","OBJECT_ID":"2022-010N","EPOCH":"2026-03-09T22:37:41.818368","MEAN_MOTION":15.08835058,"ECCENTRICITY":0.0001259,"INCLINATION":53.2172,"RA_OF_ASC_NODE":277.9482,"ARG_OF_PERICENTER":88.5621,"MEAN_ANOMALY":271.5515,"EPHEMERIS_TYPE":0,"CLASSIFICATION_TYPE":"U","NORAD_CAT_ID":51468,"ELEMENT_SET_NO":999,"REV_AT_EPOCH":22655,"BSTAR":-1.8452855e-5,"MEAN_MOTION_DOT":-5.81e-6,"MEAN_MOTION_DDOT":0}]
